OSCAR 7 (AO-7)          
1 07530U 74089B   20047.85974069 -.00000017  00000-0  17662-3 0  9998
2 07530 101.7837  18.3596 0011903 237.9569 175.2991 12.53642131 70752
UOSAT 2 (UO-11)         
1 14781U 84021B   20047.91936352  .00000047  00000-0  11886-4 0  9996
2 14781  97.5969  65.8972 0007226 234.9261 125.1276 14.83142498913819
LUSAT (LO-19)           
1 20442U 90005G   20048.08496684 -.00000017  00000-0  10314-4 0  9997
2 20442  98.6785 355.0179 0012277 147.6952 212.4986 14.32944863571234
ITAMSAT (IO-26)         
1 22826U 93061D   20047.78748378 -.00000003  00000-0  16742-4 0  9992
2 22826  98.9151  47.1502 0009014   6.5435 353.5862 14.30412734376659
RADIO ROSTO (RS-15)     
1 23439U 94085A   20047.79379108 -.00000043  00000-0 -79943-5 0  9990
2 23439  64.8153  82.9947 0146407  65.5350 296.0765 11.27568787 35303
JAS-2 (FO-29)           
1 24278U 96046B   20047.23418264 -.00000030  00000-0  77434-5 0  9995
2 24278  98.5672 173.1669 0349800 331.5689  26.6751 13.53095453160354
TECHSAT 1B (GO-32)      
1 25397U 98043D   20047.57959839 -.00000014  00000-0  13204-4 0  9998
2 25397  98.7165 350.0867 0002279  68.7698 291.3724 14.23679348122210
ISS (ZARYA)             
1 25544U 98067A   20048.25960648  .00000770  00000-0  22043-4 0  9993
2 25544  51.6442 226.8017 0004759 281.4853  64.0195 15.49168659213269
PCSAT (NO-44)           
1 26931U 01043C   20047.52085691 -.00000062  00000-0  79038-5 0  9999
2 26931  67.0508  97.0550 0006535 263.3537  96.6820 14.30567162959631
SAUDISAT 1C (SO-50)     
1 27607U 02058C   20047.92145587 -.00000054  00000-0  13067-4 0  9992
2 27607  64.5559  25.9419 0062908 207.5464 152.2301 14.75609485922793
CUTE-1 (CO-55)          
1 27844U 03031E   20048.07548594  .00000035  00000-0  35634-4 0  9991
2 27844  98.6843  57.6290 0010670  51.2118 309.0011 14.22221158862880
CUBESAT XI-IV (CO-57)   
1 27848U 03031J   20047.57436408  .00000027  00000-0  31939-4 0  9994
2 27848  98.6914  57.6792 0010703  63.6139 296.6136 14.21810258862622
MOZHAYETS 4 (RS-22)     
1 27939U 03042A   20048.23813862  .00000058  00000-0  18999-4 0  9999
2 27939  98.0702 184.8124 0013180  22.8387 337.3411 14.66837010876244
CUBESAT XI-V            
1 28895U 05043F   20047.80467102  .00000085  00000-0  25146-4 0  9990
2 28895  97.9887 187.7121 0015628 306.9093  53.0677 14.63737682763046
CUTE-1.7+APD II (CO-65) 
1 32785U 08021C   20047.78777325  .00000169  00000-0  23854-4 0  9997
2 32785  97.5646  41.2186 0013192 170.2957 189.8518 14.88417751639771
DELFI-C3 (DO-64)        
1 32789U 08021G   20047.67368699  .00001256  00000-0  86770-4 0  9993
2 32789  97.4352  94.6463 0012347  21.0956 339.0779 15.07454238643564
SEEDS II (CO-66)        
1 32791U 08021J   20047.79665025  .00000295  00000-0  35208-4 0  9994
2 32791  97.5361  47.3601 0014201 142.7720 217.4486 14.90972271640337
YUBILEINY (RS-30)       
1 32953U 08025A   20048.02758423  .00000037  00000-0  19437-3 0  9999
2 32953  82.5075 353.4266 0018932 322.4377  37.5376 12.43094340532541
KKS-1 (KISEKI)          
1 33499U 09002H   20047.86143254  .00000086  00000-0  20616-4 0  9998
2 33499  98.3305 259.0877 0009758 145.9812 214.2023 14.75504127594654
SWISSCUBE               
1 35932U 09051B   20048.02362120  .00000107  00000-0  35208-4 0  9997
2 35932  98.6033 226.4309 0008417 134.4866 225.7021 14.56358179552191
BEESAT-1                
1 35933U 09051C   20048.14984292  .00000085  00000-0  30223-4 0  9998
2 35933  98.6043 228.4053 0006471 144.1909 215.9723 14.56438297552320
ITUPSAT1                
1 35935U 09051E   20047.72998581  .00000074  00000-0  28197-4 0  9994
2 35935  98.6151 228.1877 0008745 145.9749 214.2010 14.55588823551993
XIWANG-1 (HOPE-1)       
1 36122U 09072B   20047.87438466 -.00000054  00000-0 -30573-4 0  9994
2 36122 100.0847  43.9135 0007882 140.6450 219.5236 13.16353121488875
JUGNU                   
1 37839U 11058B   20048.09104751  .00000342  00000-0  40356-4 0  9997
2 37839  19.9612 298.7563 0019065 130.4866  19.8372 14.12671723431719
SRMSAT                  
1 37841U 11058D   20048.20284587  .00000309  00000-0  24621-4 0  9999
2 37841  19.9734 359.8926 0011738 352.7367 136.8591 14.10649558431119
M-CUBED & EXP-1 PRIME   
1 37855U 11061F   20048.07572332  .00001158  00000-0  64909-4 0  9997
2 37855 101.7261  73.8982 0171885  75.1551 286.8629 15.06001461453400
STRAND-1                
1 39090U 13009E   20048.11444438  .00000013  00000-0  19711-4 0  9994
2 39090  98.4666 254.7095 0008085 288.0957  71.9348 14.35117948365306
SOMP                    
1 39134U 13015E   20047.79625136  .00000800  00000-0  45047-4 0  9994
2 39134  64.8636 312.4944 0037552 263.8621  95.8228 15.20744852377551
BEESAT-3                
1 39135U 13015F   20047.23596494  .00000803  00000-0  48435-4 0  9995
2 39135  64.8685 336.0627 0045680 265.3704  94.2204 15.17932226376664
BEESAT-2                
1 39136U 13015G   20048.09085501  .00000461  00000-0  32813-4 0  9996
2 39136  64.8704 337.8810 0030067 278.9038  80.8684 15.17332083377099
ZACUBE-1 (TSHEPISOSAT)  
1 39417U 13066B   20047.77129627  .00000171  00000-0  27900-4 0  9995
2 39417  97.5630  52.5838 0057844 318.0590  41.6200 14.81222326337020
GOMX-1                  
1 39430U 13066Q   20048.10478454  .00000100  00000-0  27275-4 0  9990
2 39430  97.7785 354.0522 0150131 206.5466 152.7996 14.59348351332106
CUBEBUG-2 (LO-74)       
1 39440U 13066AA  20048.00528295  .00000193  00000-0  33727-4 0  9990
2 39440  97.6204  37.2948 0080599  15.6619 344.7057 14.75958679335868
FUNCUBE-1 (AO-73)       
1 39444U 13066AE  20047.77103013  .00000199  00000-0  30816-4 0  9996
2 39444  97.5586  54.7383 0056818 310.7156  48.9130 14.82063428335933
UWE-3                   
1 39446U 13066AG  20047.72799386  .00000190  00000-0  31875-4 0  9994
2 39446  97.5915  44.2236 0069654 348.2207  11.7372 14.78494007334589
SPROUT                  
1 39770U 14029E   20048.21487906  .00000576  00000-0  69449-4 0  9997
2 39770  97.8886 155.0953 0009248  13.7100 346.4363 14.87612544311036
UNISAT-6                
1 40012U 14033C   20047.56093189  .00000129  00000-0  26552-4 0  9998
2 40012  97.7265 268.2629 0059148  35.1148 325.3938 14.74068423304468
DUCHIFAT-1              
1 40021U 14033M   20048.06719722  .00000325  00000-0  38915-4 0  9996
2 40021  97.9369 338.6174 0012320 334.1228  25.9372 14.90812336307808
QB50P1                  
1 40025U 14033R   20047.76366504  .00000149  00000-0  21793-4 0  9992
2 40025  97.9129 332.1174 0012102 346.5348  13.5544 14.89070438306982
NUDT-PHONESAT           
1 40900U 15049B   20048.16829481  .00001453  00000-0  63516-4 0  9993
2 40900  97.4349  60.1877 0013970  54.4889  10.6784 15.23623321244721
ZDPS 2A                 
1 40901U 15049C   20048.06152269  .00000679  00000-0  36561-4 0  9995
2 40901  97.4623  55.4311 0015059  76.8115 356.0463 15.18073517244155
ZDPS 2B                 
1 40902U 15049D   20048.17063740  .00000795  00000-0  42332-4 0  9995
2 40902  97.4596  52.8590 0014985  74.4534 344.1920 15.18013197244144
XW-2A                   
1 40903U 15049E   20048.08834424  .00001346  00000-0  32843-4 0  9990
2 40903  97.3063  96.8655 0013033 351.5202  66.7307 15.42632437247765
KAITUO 1A               
1 40904U 15049F   20048.18562789  .00000306  00000-0  19578-4 0  9999
2 40904  97.4748  51.1418 0016128  84.4434  45.6379 15.15597911243875
2015-049G               
1 40905U 15049G   20048.16611872  .00000112  00000-0  96624-5 0  9999
2 40905  97.4813  48.4350 0017238  81.0274 341.3903 15.14460605243722
XW-2C                   
1 40906U 15049H   20048.12325662  .00000563  00000-0  32771-4 0  9997
2 40906  97.4746  51.2868 0016474  75.9745 349.0227 15.15930354243874
XW-2D                   
1 40907U 15049J   20048.07016983  .00000482  00000-0  28404-4 0  9993
2 40907  97.4731  50.9256 0015793  73.4566 358.1332 15.16143906243882
LILACSAT-2              
1 40908U 15049K   20048.15785711 -.00000064  00000-0  96883-7 0  9991
2 40908  97.4877  49.5313 0017491  81.2415 337.4209 15.13953311243642
XW-2F                   
1 40910U 15049M   20048.12157731  .00000813  00000-0  43561-4 0  9999
2 40910  97.4671  53.3614 0016232  65.0559   0.3340 15.17707535243938
XW-2B                   
1 40911U 15049N   20048.11362810  .00000504  00000-0  29560-4 0  9995
2 40911  97.4749  51.6548 0015637  74.5351 353.7603 15.16072114243782
KAITUO 1B               
1 40912U 15049P   20048.17398612  .00000784  00000-0  39434-4 0  9992
2 40912  97.4497  57.4229 0015939  47.1441  18.3743 15.20070620244295
TIANWANG 1C (TW-1C)     
1 40926U 15051B   20048.09306961  .00011803  00000-0  13979-3 0  9996
2 40926  97.1032  99.3399 0006933 168.8579 245.5578 15.61368604248068
TIANWANG 1A (TW-1A)     
1 40928U 15051D   20048.13646985  .00001901  00000-0  46542-4 0  9997
2 40928  97.1226  78.8820 0008857 269.3298 162.5736 15.41965534246670
LAPAN-A2                
1 40931U 15052B   20047.50314939  .00000440  00000-0 -27845-4 0  9996
2 40931   5.9959 125.0758 0013548 350.9845   9.0050 14.76624032237202
E-ST@R-II               
1 41459U 16025D   20048.22556834  .00001649  00000-0  87619-4 0  9991
2 41459  98.0961 152.0105 0165083 259.4361  98.8276 15.06044041209191
AAUSAT 4                
1 41460U 16025E   20048.01148553  .00001615  00000-0  83758-4 0  9998
2 41460  98.0938 153.7060 0154242 250.3249 108.1286 15.08181159209331
NUSAT-1 (FRESCO)        
1 41557U 16033B   20048.21879248  .00000909  00000-0  36221-4 0  9996
2 41557  97.4065 139.2574 0014451 151.3274 208.8763 15.27734149207268
BEESAT-4                
1 41619U 16040W   20047.74787131  .00000959  00000-0  42834-4 0  9991
2 41619  97.3367 110.0788 0009676 244.3525 115.6713 15.23686072190864
CAS-2T & KS-1Q          
1 41847U 16066G   20047.86176765  .00000021  00000-0  14209-4 0  9995
2 41847  98.6734  97.0421 0364999 231.0557 125.7575 14.38040509171947
NAYIF-1 (EO-88)         
1 42017U 17008BX  20047.74061062  .00001049  00000-0  43389-4 0  9994
2 42017  97.3749 117.0176 0007200  44.2756 315.9058 15.26142312166983
MAX VALIER SAT          
1 42778U 17036P   20047.62311434  .00000588  00000-0  28376-4 0  9993
2 42778  97.3229 104.5286 0013985  91.7168 268.5670 15.22399437147197
RADFXSAT (FOX-1B)       
1 43017U 17073E   20047.53353652  .00000395  00000-0  35647-4 0  9994
2 43017  97.7266 324.4560 0258874  87.5669 275.5151 14.78795632121140
FOX-1D (AO-92)          
1 43137U 18004AC  20047.75316423  .00000718  00000-0  32705-4 0  9992
2 43137  97.4597 119.6765 0010692 119.1512 241.0797 15.23881893116505
ES'HAIL 2               
1 43700U 18090A   20048.10179946  .00000128  00000-0  00000+0 0  9993
2 43700   0.0134 119.4713 0002187 245.4097 204.0623  1.00271115  4738
FOX-1CLIFF (AO-95)      
1 43770U 18099N   20048.15838688  .00000396  00000-0  41486-4 0  9994
2 43770  97.7194 121.5846 0013333 238.5588 121.4329 14.94910678 65797
ITASAT 1                
1 43786U 18099AE  20047.91556197 -.00000291  00000-0 -21180-4 0  9991
2 43786  97.7207 121.6779 0014116 233.3778 126.6145 14.95259239 65770
JY1SAT (JO-97)          
1 43803U 18099AX  20047.87689302  .00000616  00000-0  60905-4 0  9998
2 43803  97.7166 121.4893 0014064 233.3039 126.6890 14.95419185 65765
PSAT2 (NO-104)          
1 44354U 19036R   20047.49081612  .00004927  00000-0  70305-4 0  9994
2 44354  28.5296 100.2307 0374043  90.6821 273.6633 15.01096767 35464
BRICSAT2 (NO-103)       
1 44355U 19036S   20047.45607522  .00008798  00000-0  12578-3 0  9992
2 44355  28.5298  97.0341 0361059  95.9072 268.2783 15.04351861 35487
JAISAT-1                
1 44419U 19038F   20047.83997579  .00000640  00000-0  40294-4 0  9996
2 44419  97.5230  10.9984 0021406 185.6307 174.4687 15.12570853 34218
DUCHIFAT-3              
1 44854U 19089C   20048.13086345  .00000231  00000-0  25180-4 0  9992
2 44854  36.9666  95.2936 0007204 163.7090 196.3917 14.98971164 10081
